ORBCOMM-X               
1 21576U 91050C   24323.46060448  .00000619  00000+0  19806-3 0  9994
2 21576  98.3727  28.0947 0004824 101.5641 258.6091 14.42920595751729
ORBCOMM FM01            
1 23545U 95017A   24323.51590304  .00010550  00000+0  12354-2 0  9999
2 23545  69.9653 237.6945 0007575 280.3497  79.6801 14.85223090581179
ORBCOMM FM02            
1 23546U 95017B   24323.24587378  .00011485  00000+0  13487-2 0  9993
2 23546  69.9672 258.0428 0009676 280.8478  79.1585 14.85060679580773
ORBCOMM FM08            
1 25112U 97084A   24323.40916423  .00002939  00000+0  88712-3 0  9993
2 25112  45.0143 298.6596 0007873 275.1321  84.8631 14.44313925410888
ORBCOMM FM10            
1 25113U 97084B   24323.56971813  .00002865  00000+0  86871-3 0  9997
2 25113  45.0157 299.9365 0005144 252.8565 107.1723 14.44170787586054
ORBCOMM FM11            
1 25114U 97084C   24323.53980420  .00002374  00000+0  73027-3 0  9993
2 25114  45.0140 300.3539 0005985 250.8974 109.1229 14.43954737411012
ORBCOMM FM12            
1 25115U 97084D   24323.43497535  .00002614  00000+0  79985-3 0  9999
2 25115  45.0151 300.6138 0005005 253.3135 106.7166 14.43953786410793
ORBCOMM FM09            
1 25116U 97084E   24323.38301005  .00002507  00000+0  76967-3 0  9998
2 25116  45.0154 301.6201 0005682 234.8651 125.1667 14.43887435410997
